{"type": "FeatureCollection", "features": [ {"type": "Feature", "properties": {"norad_id": 30529, "name": "FENGYUN 1C DEB", "group": "fengyun-1c-debris", "lat": 4.080895972585519, "lon": 87.49612974031564, "alt_km": 888.7371474109423, "timestamp": "2025-12-10T18:57:00.342436+00:00", "meta": {"OBJECT_NAME": "FENGYUN 1C DEB", "OBJECT_ID": "1999-025AJT", "EPOCH": "2025-12-06T17:47:03.624288", "MEAN_MOTION": 13.71588709, "ECCENTRICITY": 0.02311835, "INCLINATION": 98.4889, "RA_OF_ASC_NODE": 263.2998, "ARG_OF_PERICENTER": 238.5675, "MEAN_ANOMALY": 119.2686, "EPHEMERIS_TYPE": 0, "CLASSIFICATION_TYPE": "U", "NORAD_CAT_ID": 30529, "ELEMENT_SET_NO": 999, "REV_AT_EPOCH": 93926, "BSTAR": 0.001633705, "MEAN_MOTION_DOT": 1.743e-05, "MEAN_MOTION_DDOT": 0}, "tle": {"line1": "1 30529U 99025AJT 25340.74101417  .00001743  00000+0  16337-2 0  9999", "line2": "2 30529  98.4889 263.2998 0231183 238.5675 119.2686 13.71588709939261"}}, "geometry": {"type": "Point", "coordinates": [87.49612974031564, 4.080895972585519]}}, {"type": "Feature", "properties": {"norad_id": 30530, "name": "FENGYUN 1C DEB", "group": "fengyun-1c-debris", "lat": 53.23198114336221, "lon": 11.806828832810483, "alt_km": 761.4357216399367, "timestamp": "2025-12-10T18:57:00.342446+00:00", "meta": {"OBJECT_NAME": "FENGYUN 1C DEB", "OBJECT_ID": "1999-025AJU", "EPOCH": "2025-12-09T01:03:27.983232", "MEAN_MOTION": 14.36773737, "ECCENTRICITY": 0.01000848, "INCLINATION": 98.3968, "RA_OF_ASC_NODE": 21.505, "ARG_OF_PERICENTER": 147.7504, "MEAN_ANOMALY": 244.2665, "EPHEMERIS_TYPE": 0, "CLASSIFICATION_TYPE": "U", "NORAD_CAT_ID": 30530, "ELEMENT_SET_NO": 999, "REV_AT_EPOCH": 98732, "BSTAR": 0.00035867976, "MEAN_MOTION_DOT": 1.077e-05, "MEAN_MOTION_DDOT": 0}, "tle": {"line1": "1 30530U 99025AJU 25343.04407388  .00001077  00000+0  35868-3 0  9994", "line2": "2 30530  98.3968  21.5050 0100084 147.7504 244.2665 14.36773737987326"}}, "geometry": {"type": "Point", "coordinates": [11.806828832810483, 53.23198114336221]}}, {"type": "Feature", "properties": {"norad_id": 30531, "name": "FENGYUN 1C DEB", "group": "fengyun-1c-debris", "lat": -75.74780663016699, "lon": -130.7137246709465, "alt_km": 686.6663263815171, "timestamp": "2025-12-10T18:57:00.342456+00:00", "meta": {"OBJECT_NAME": "FENGYUN 1C DEB", "OBJECT_ID": "1999-025AJV", "EPOCH": "2025-12-10T11:06:53.783136", "MEAN_MOTION": 14.61673569, "ECCENTRICITY": 0.0028153, "INCLINATION": 102.3105, "RA_OF_ASC_NODE": 169.5191, "ARG_OF_PERICENTER": 212.3037, "MEAN_ANOMALY": 147.6425, "EPHEMERIS_TYPE": 0, "CLASSIFICATION_TYPE": "U", "NORAD_CAT_ID": 30531, "ELEMENT_SET_NO": 999, "REV_AT_EPOCH": 97662, "BSTAR": 0.0067514, "MEAN_MOTION_DOT": 0.00033898, "MEAN_MOTION_DDOT": 0}, "tle": {"line1": "1 30531U 99025AJV 25344.46312249  .00033898  00000+0  67514-2 0  9991", "line2": "2 30531 102.3105 169.5191 0028153 212.3037 147.6425 14.61673569976622"}}, "geometry": {"type": "Point", "coordinates": [-130.7137246709465, -75.74780663016699]}}, {"type": "Feature", "properties": {"norad_id": 30532, "name": "FENGYUN 1C DEB", "group": "fengyun-1c-debris", "lat": -53.78683773663222, "lon": 39.771627652107505, "alt_km": 487.79118156328786, "timestamp": "2025-12-10T18:57:00.342466+00:00", "meta": {"OBJECT_NAME": "FENGYUN 1C DEB", "OBJECT_ID": "1999-025AJW", "EPOCH": "2025-12-10T01:51:04.094208", "MEAN_MOTION": 15.23494988, "ECCENTRICITY": 0.00255542, "INCLINATION": 96.9606, "RA_OF_ASC_NODE": 29.5058, "ARG_OF_PERICENTER": 265.9287, "MEAN_ANOMALY": 93.903, "EPHEMERIS_TYPE": 0, "CLASSIFICATION_TYPE": "U", "NORAD_CAT_ID": 30532, "ELEMENT_SET_NO": 999, "REV_AT_EPOCH": 97647, "BSTAR": 0.01544303, "MEAN_MOTION_DOT": 0.00390873, "MEAN_MOTION_DDOT": 0}, "tle": {"line1": "1 30532U 99025AJW 25344.07713072  .00390873  00000+0  15443-1 0  9990", "line2": "2 30532  96.9606  29.5058 0025554 265.9287  93.9030 15.23494988976470"}}, "geometry": {"type": "Point", "coordinates": [39.771627652107505, -53.78683773663222]}}, {"type": "Feature", "properties": {"norad_id": 30533, "name": "FENGYUN 1C DEB", "group": "fengyun-1c-debris", "lat": -48.87106369423214, "lon": 123.75600752421222, "alt_km": 773.7461103411297, "timestamp": "2025-12-10T18:57:00.342476+00:00", "meta": {"OBJECT_NAME": "FENGYUN 1C DEB", "OBJECT_ID": "1999-025AJX", "EPOCH": "2025-12-10T07:52:07.744224", "MEAN_MOTION": 14.53677318, "ECCENTRICITY": 0.0082897, "INCLINATION": 98.8341, "RA_OF_ASC_NODE": 113.0105, "ARG_OF_PERICENTER": 156.5034, "MEAN_ANOMALY": 258.6041, "EPHEMERIS_TYPE": 0, "CLASSIFICATION_TYPE": "U", "NORAD_CAT_ID": 30533, "ELEMENT_SET_NO": 999, "REV_AT_EPOCH": 97786, "BSTAR": 0.0059581, "MEAN_MOTION_DOT": 0.00026146, "MEAN_MOTION_DDOT": 0}, "tle": {"line1": "1 30533U 99025AJX 25344.32786741  .00026146  00000+0  59581-2 0  9993", "line2": "2 30533  98.8341 113.0105 0082897 156.5034 258.6041 14.53677318977866"}}, "geometry": {"type": "Point", "coordinates": [123.75600752421222, -48.87106369423214]}}, {"type": "Feature", "properties": {"norad_id": 30539, "name": "FENGYUN 1C DEB", "group": "fengyun-1c-debris", "lat": 24.990733822848785, "lon": -39.056980510189575, "alt_km": 725.7338052331679, "timestamp": "2025-12-10T18:57:00.342486+00:00", "meta": {"OBJECT_NAME": "FENGYUN 1C DEB", "OBJECT_ID": "1999-025AKD", "EPOCH": "2025-12-09T21:23:02.287680", "MEAN_MOTION": 14.55369379, "ECCENTRICITY": 0.01155546, "INCLINATION": 98.8802, "RA_OF_ASC_NODE": 324.1672, "ARG_OF_PERICENTER": 284.5486, "MEAN_ANOMALY": 74.2915, "EPHEMERIS_TYPE": 0, "CLASSIFICATION_TYPE": "U", "NORAD_CAT_ID": 30539, "ELEMENT_SET_NO": 999, "REV_AT_EPOCH": 99324, "BSTAR": 0.0011066897, "MEAN_MOTION_DOT": 5.2e-05, "MEAN_MOTION_DDOT": 0}, "tle": {"line1": "1 30539U 99025AKD 25343.89099870  .00005200  00000+0  11067-2 0  9995", "line2": "2 30539  98.8802 324.1672 0115554 284.5486  74.2915 14.55369379993247"}}, "geometry": {"type": "Point", "coordinates": [-39.056980510189575, 24.990733822848785]}}, {"type": "Feature", "properties": {"norad_id": 30540, "name": "FENGYUN 1C DEB", "group": "fengyun-1c-debris", "lat": 33.92130995546024, "lon": 87.05182335480968, "alt_km": 751.1225116190681, "timestamp": "2025-12-10T18:57:00.342496+00:00", "meta": {"OBJECT_NAME": "FENGYUN 1C DEB", "OBJECT_ID": "1999-025AKE", "EPOCH": "2025-12-09T18:23:42.838656", "MEAN_MOTION": 14.32227969, "ECCENTRICITY": 0.00517836, "INCLINATION": 98.8789, "RA_OF_ASC_NODE": 92.0393, "ARG_OF_PERICENTER": 71.2051, "MEAN_ANOMALY": 91.3407, "EPHEMERIS_TYPE": 0, "CLASSIFICATION_TYPE": "U", "NORAD_CAT_ID": 30540, "ELEMENT_SET_NO": 999, "REV_AT_EPOCH": 97243, "BSTAR": 0.0031969788, "MEAN_MOTION_DOT": 8.71e-05, "MEAN_MOTION_DDOT": 0}, "tle": {"line1": "1 30540U 99025AKE 25343.76646804  .00008710  00000+0  31970-2 0  9992", "line2": "2 30540  98.8789  92.0393 0051783  71.2051  91.3407 14.32227969972433"}}, "geometry": {"type": "Point", "coordinates": [87.05182335480968, 33.92130995546024]}}, {"type": "Feature", "properties": {"norad_id": 30541, "name": "FENGYUN 1C DEB", "group": "fengyun-1c-debris", "lat": 46.774137298591256, "lon": -139.27420352860548, "alt_km": 800.9141032655334, "timestamp": "2025-12-10T18:57:00.342531+00:00", "meta": {"OBJECT_NAME": "FENGYUN 1C DEB", "OBJECT_ID": "1999-025AKF", "EPOCH": "2025-12-09T13:38:38.789664", "MEAN_MOTION": 14.23027752, "ECCENTRICITY": 0.0018486, "INCLINATION": 98.6947, "RA_OF_ASC_NODE": 30.1504, "ARG_OF_PERICENTER": 94.8558, "MEAN_ANOMALY": 265.4731, "EPHEMERIS_TYPE": 0, "CLASSIFICATION_TYPE": "U", "NORAD_CAT_ID": 30541, "ELEMENT_SET_NO": 999, "REV_AT_EPOCH": 97282, "BSTAR": 0.0017546, "MEAN_MOTION_DOT": 3.919e-05, "MEAN_MOTION_DDOT": 0}, "tle": {"line1": "1 30541U 99025AKF 25343.56850451  .00003919  00000+0  17546-2 0  9995", "line2": "2 30541  98.6947  30.1504 0018486  94.8558 265.4731 14.23027752972826"}}, "geometry": {"type": "Point", "coordinates": [-139.27420352860548, 46.774137298591256]}}, {"type": "Feature", "properties": {"norad_id": 30542, "name": "FENGYUN 1C DEB", "group": "fengyun-1c-debris", "lat": 66.04340319971816, "lon": -146.03493905017135, "alt_km": 876.7332663741845, "timestamp": "2025-12-10T18:57:00.342542+00:00", "meta": {"OBJECT_NAME": "FENGYUN 1C DEB", "OBJECT_ID": "1999-025AKG", "EPOCH": "2025-12-10T01:36:41.817024", "MEAN_MOTION": 14.06971702, "ECCENTRICITY": 0.00275885, "INCLINATION": 98.7874, "RA_OF_ASC_NODE": 12.8903, "ARG_OF_PERICENTER": 341.9569, "MEAN_ANOMALY": 72.9618, "EPHEMERIS_TYPE": 0, "CLASSIFICATION_TYPE": "U", "NORAD_CAT_ID": 30542, "ELEMENT_SET_NO": 999, "REV_AT_EPOCH": 96881, "BSTAR": 0.00015938734, "MEAN_MOTION_DOT": 2.24e-06, "MEAN_MOTION_DDOT": 0}, "tle": {"line1": "1 30542U 99025AKG 25344.06715066  .00000224  00000+0  15939-3 0  9995", "line2": "2 30542  98.7874  12.8903 0027588 341.9569  72.9618 14.06971702968811"}}, "geometry": {"type": "Point", "coordinates": [-146.03493905017135, 66.04340319971816]}}, {"type": "Feature", "properties": {"norad_id": 30543, "name": "FENGYUN 1C DEB", "group": "fengyun-1c-debris", "lat": -30.299877710643585, "lon": 169.19857883701093, "alt_km": 938.8444009214172, "timestamp": "2025-12-10T18:57:00.342553+00:00", "meta": {"OBJECT_NAME": "FENGYUN 1C DEB", "OBJECT_ID": "1999-025AKH", "EPOCH": "2025-12-09T23:16:35.908320", "MEAN_MOTION": 14.03736062, "ECCENTRICITY": 0.00725004, "INCLINATION": 98.833, "RA_OF_ASC_NODE": 353.6155, "ARG_OF_PERICENTER": 41.2526, "MEAN_ANOMALY": 349.0617, "EPHEMERIS_TYPE": 0, "CLASSIFICATION_TYPE": "U", "NORAD_CAT_ID": 30543, "ELEMENT_SET_NO": 999, "REV_AT_EPOCH": 96466, "BSTAR": 0.00051852504, "MEAN_MOTION_DOT": 7.92e-06, "MEAN_MOTION_DDOT": 0}, "tle": {"line1": "1 30543U 99025AKH 25343.96986005  .00000792  00000+0  51853-3 0  9992", "line2": "2 30543  98.8330 353.6155 0072500  41.2526 349.0617 14.03736062964663"}}, "geometry": {"type": "Point", "coordinates": [169.19857883701093, -30.299877710643585]}}]}